COSMOS 2419 (714)       
1 28915U 05050A   17029.12271984  .00000015  00000-0  00000+0 0  9993
2 28915  65.4279  70.5403 0015363 346.4132 326.1921  2.13109748 86362
COSMOS 2425 (716)       
1 29670U 06062A   17030.13974767 -.00000009  00000-0  10000-3 0  9997
2 29670  65.5299 309.5175 0022927 343.7689  83.5936  2.13104952 78594
COSMOS 2426 (717)       
1 29671U 06062B   17029.43264775 -.00000009  00000-0  10000-3 0  9990
2 29671  65.5466 309.6285 0015672 167.4716 296.7326  2.13103085 78581
COSMOS 2424 (715)       
1 29672U 06062C   17028.40771781 -.00000013  00000-0  10000-3 0  9992
2 29672  65.5308 309.5861 0015128 166.5536  47.0613  2.13102049 78554
COSMOS 2433 (720)       
1 32275U 07052A   17030.38966413  .00000011  00000-0  10000-3 0  9990
2 32275  65.4442  70.2724 0004481 265.9561 185.3241  2.13104958 72117
COSMOS 2432 (719)       
1 32276U 07052B   17030.27324030  .00000012  00000-0  10000-3 0  9993
2 32276  65.4556  70.3462 0012215 328.4607 346.7077  2.13104113 72106
COSMOS 2434 (721)       
1 32393U 07065A   17030.22629421 -.00000009  00000-0  00000+0 0  9996
2 32393  65.1444 308.7283 0002663  91.6477 124.6770  2.13102800 70818
COSMOS 2436 (723)       
1 32395U 07065C   17030.06119539 -.00000008  00000-0  10000-3 0  9998
2 32395  65.1550 308.7789 0016282 356.1576 141.5043  2.13104231 70743
COSMOS 2443 (725)       
1 33379U 08046B   17029.67202413  .00000013  00000-0  00000+0 0  9990
2 33379  65.3725  69.6916 0016214 188.1837 334.7358  2.13101851 64962
COSMOS 2456 (730)       
1 36111U 09070A   17029.70203777  .00000067  00000-0  00000+0 0  9992
2 36111  64.1805 188.3116 0003322 349.0524 355.6702  2.13102905 55464
COSMOS 2457 (733)       
1 36112U 09070B   17029.56846308  .00000066  00000-0  00000+0 0  9999
2 36112  64.1623 188.2385 0007232 148.2831 223.1774  2.13101607 55471
COSMOS 2458 (734)       
1 36113U 09070C   17029.57359235  .00000066  00000-0  10000-3 0  9994
2 36113  64.1684 188.2461 0003037  59.9545   3.1814  2.13102004 55476
COSMOS 2459 (731)       
1 36400U 10007A   17030.07291537  .00000012  00000-0  10000-3 0  9993
2 36400  65.3525  69.4053 0027839 348.9464  82.6044  2.13102241 53834
COSMOS 2461 (735)       
1 36401U 10007B   17028.75319924  .00000015  00000-0  10000-3 0  9990
2 36401  65.3436  69.4310 0004701  62.1717 347.5313  2.13102198 53801
COSMOS 2460 (732)       
1 36402U 10007C   17028.70581997  .00000015  00000-0  10000-3 0  9997
2 36402  65.3353  69.4056 0001700 271.4650 143.4199  2.13101831 53802
COSMOS 2465 (737)       
1 37138U 10041B   17030.07322906 -.00000009  00000-0  00000+0 0  9997
2 37138  64.7441 308.7923 0033986 173.0915 329.4521  2.13104433 49906
COSMOS 2464 (736)       
1 37139U 10041C   17029.53880289 -.00000009  00000-0  00000+0 0  9990
2 37139  64.7509 308.8080 0024152   8.9477 267.6844  2.13102592 49894
COSMOS 2471 (701K)      
1 37372U 11009A   17029.49232697  .00000013  00000-0  00000+0 0  9997
2 37372  65.3321  69.3289 0009022 239.2735 192.3508  2.13102828 46099
COSMOS 2474 (742)       
1 37829U 11055A   17030.09216146  .00000070  00000-0  00000+0 0  9997
2 37829  64.5053 188.8055 0005993 243.5188 260.8885  2.13101920 41478
COSMOS 2476 (744)       
1 37867U 11064A   17028.55515959  .00000063  00000-0  00000-0 0  9994
2 37867  64.4846 188.9329 0015095 241.1895 209.9774  2.13101970 40797
COSMOS 2477 (745)       
1 37868U 11064B   17029.41864082  .00000066  00000-0  00000+0 0  9997
2 37868  64.4957 188.9471 0013070 242.6174 330.2002  2.13101869 40762
COSMOS 2475 (743)       
1 37869U 11064C   17028.69132740  .00000064  00000-0  00000+0 0  9994
2 37869  64.5011 188.9613 0017856 273.8320  57.3431  2.13102003 40751
COSMOS 2485 (747)       
1 39155U 13019A   17030.54205140  .00000073  00000-0  00000+0 0  9998
2 39155  64.6551 188.8653 0015621 235.2883 345.2371  2.13102002 29307
COSMOS 2492 (754)       
1 39620U 14012A   17029.36804693  .00000013  00000-0  10000-3 0  9994
2 39620  65.2245  69.3388 0015896 325.7816 107.9047  2.13103481 22234
COSMOS 2500 (755)       
1 40001U 14032A   17028.63648701  .00000014  00000-0  00000-0 0  9993
2 40001  65.1646  69.3720 0006956 219.2345 236.5364  2.13102824 20435
COSMOS 2501 (702K)      
1 40315U 14075A   17028.59293841 -.00000014  00000-0  00000-0 0  9995
2 40315  64.4789 310.2327 0014438 214.4912  15.7441  2.13100495 16839
COSMOS 2514 (751)       
1 41330U 16008A   17028.74511162  .00000014  00000-0  00000-0 0  9996
2 41330  64.9646  69.5473 0010390 223.7410 134.9958  2.13103431  7592
COSMOS 2516 (753)       
1 41554U 16032A   17030.39372861 -.00000011  00000-0  00000+0 0  9993
2 41554  64.6973 309.8965 0011362 231.5879 205.2948  2.13101694  5242
